NORAD_CAT_ID,OBJECT_NAME,OBJECT_TYPE,EPOCH,MEAN_MOTION,ECCENTRICITY,INCLINATION,RA_OF_ASC_NODE,ARG_OF_PERICENTER,MEAN_ANOMALY,BSTAR,MEAN_MOTION_DOT,MEAN_MOTION_DDOT,TLE_LINE0,TLE_LINE1,TLE_LINE2,SEMIMAJOR_AXIS,PERIOD,APOGEE,PERIGEE,DECAYED
53423.0,STARLINK-4539,PAYLOAD,2023-12-21 14:54:34,15.08839033,0.0001409,53.2169,146.1787,79.5001,280.6149,3.4883e-05,2.67e-06,0.0,0 STARLINK-4539,1 53423U 22097AM  23355.62123103  .00000267  00000-0  34883-4 0  9998,2 53423  53.2169 146.1787 0001409  79.5001 280.6149 15.08839033 76480,6917.883,95.438,540.723,538.774,0.0
53423.0,STARLINK-4539,PAYLOAD,2023-12-22 14:45:20,15.08846736,0.0001494,53.2169,141.7184,74.6261,285.4896,0.00010663,1.41e-05,0.0,0 STARLINK-4539,1 53423U 22097AM  23356.61482575  .00001410  00000-0  10663-3 0  9999,2 53423  53.2169 141.7184 0001494  74.6261 285.4896 15.08846736 76637,6917.86,95.437,540.758,538.691,0.0
53423.0,STARLINK-4539,PAYLOAD,2023-12-22 16:20:44,15.08847177,0.0001574,53.2153,141.4221,71.5356,288.5807,0.00017609,2.516e-05,0.0,0 STARLINK-4539,1 53423U 22097AM  23356.68106742  .00002516  00000-0  17609-3 0  9990,2 53423  53.2153 141.4221 0001574  71.5356 288.5807 15.08847177 76185,6917.858,95.437,540.812,538.635,0.0
53423.0,STARLINK-4539,PAYLOAD,2023-12-23 09:49:59,15.0883488,0.000147,53.2158,138.1528,85.0842,275.0318,0.00024858,3.67e-05,0.0,0 STARLINK-4539,1 53423U 22097AM  23357.40971217  .00003670  00000-0  24858-3 0  9994,2 53423  53.2158 138.1528 0001470  85.0842 275.0318 15.08834880 76295,6917.896,95.438,540.778,538.744,0.0
53423.0,STARLINK-4539,PAYLOAD,2023-12-23 14:36:08,15.08831673,0.0001314,53.2177,137.2608,90.2533,269.8609,0.00020088,2.91e-05,0.0,0 STARLINK-4539,1 53423U 22097AM  23357.60843095  .00002910  00000-0  20088-3 0  9995,2 53423  53.2177 137.2608 0001314  90.2533 269.8609 15.08831673 76782,6917.906,95.438,540.68,538.862,0.0
53423.0,STARLINK-4539,PAYLOAD,2023-12-23 16:11:31,15.08836272,0.0001412,53.2174,136.9615,105.4414,254.6734,0.00017825,2.55e-05,0.0,0 STARLINK-4539,1 53423U 22097AM  23357.67466775  .00002550  00000-0  17825-3 0  9993,2 53423  53.2174 136.9615 0001412 105.4414 254.6734 15.08836272 76791,6917.892,95.438,540.734,538.78,0.0
53423.0,STARLINK-4539,PAYLOAD,2023-12-24 14:26:55,15.08845162,0.0001559,53.2177,132.7988,100.7038,259.413,5.1605e-05,5.33e-06,0.0,0 STARLINK-4539,1 53423U 22097AM  23358.60202558  .00000533  00000-0  51605-4 0  9998,2 53423  53.2177 132.7988 0001559 100.7038 259.4130 15.08845162 76930,6917.865,95.437,540.808,538.651,0.0
53423.0,STARLINK-4539,PAYLOAD,2023-12-24 16:02:18,15.08846148,0.0001546,53.2177,132.5016,98.7682,261.3485,6.1885e-05,6.97e-06,0.0,0 STARLINK-4539,1 53423U 22097AM  23358.66826466  .00000697  00000-0  61885-4 0  9996,2 53423  53.2177 132.5016 0001546  98.7682 261.3485 15.08846148 76487,6917.862,95.437,540.796,538.657,0.0
53423.0,STARLINK-4539,PAYLOAD,2023-12-25 09:31:33,15.08839241,0.0001672,53.218,129.226,93.3347,266.7836,2.3359e-05,8.4e-07,0.0,0 STARLINK-4539,1 53423U 22097AM  23359.39691038  .00000084  00000-0  23359-4 0  9996,2 53423  53.2180 129.2260 0001672  93.3347 266.7836 15.08839241 76591,6917.883,95.438,540.904,538.591,0.0
53423.0,STARLINK-4539,PAYLOAD,2023-12-25 14:17:42,15.08839024,0.0001531,53.2177,128.3367,100.9532,259.1632,4.1516e-05,3.73e-06,0.0,0 STARLINK-4539,1 53423U 22097AM  23359.59563025  .00000373  00000-0  41516-4 0  9998,2 53423  53.2177 128.3367 0001531 100.9532 259.1632 15.08839024 77084,6917.883,95.438,540.808,538.689,0.0
53423.0,STARLINK-4539,PAYLOAD,2023-12-26 14:08:30,15.08834102,0.0001461,53.2178,123.8789,95.1751,264.9408,1.9071e-05,1.6e-07,0.0,0 STARLINK-4539,1 53423U 22097AM  23360.58923754  .00000016  00000-0  19071-4 0  9993,2 53423  53.2178 123.8789 0001461  95.1751 264.9408 15.08834102 77237,6917.898,95.438,540.774,538.753,0.0
53423.0,STARLINK-4539,PAYLOAD,2023-12-26 18:54:41,15.08768461,0.0002002,53.2179,122.986,96.8891,263.2329,0.0010129,0.00015838,0.0,0 STARLINK-4539,1 53423U 22097AM  23360.78797554  .00015838  00000-0  10129-2 0  9993,2 53423  53.2179 122.9860 0002002  96.8891 263.2329 15.08768461 76803,6918.099,95.442,541.349,538.579,0.0
53423.0,STARLINK-4539,PAYLOAD,2023-12-27 07:37:44,15.0883461,0.0001482,53.2175,120.607,99.8517,260.2643,5.6774e-05,6.16e-06,0.0,0 STARLINK-4539,1 53423U 22097AM  23361.31787885  .00000616  00000-0  56774-4 0  9995,2 53423  53.2175 120.6070 0001482  99.8517 260.2643 15.08834610 76880,6917.897,95.438,540.787,538.737,0.0
53423.0,STARLINK-4539,PAYLOAD,2023-12-27 13:59:16,15.08858016,0.0001562,53.2176,119.4176,104.4088,255.7077,-0.00015845,-2.81e-05,0.0,0 STARLINK-4539,1 53423U 22097AM  23361.58282985 -.00002810  00000-0 -15845-3 0  9998,2 53423  53.2176 119.4176 0001562 104.4088 255.7077 15.08858016 77381,6917.825,95.436,540.771,538.61,0.0
53423.0,STARLINK-4539,PAYLOAD,2023-12-27 15:34:40,15.08841443,0.0001475,53.2168,119.1222,70.1753,289.9398,0.00012069,1.633e-05,0.0,0 STARLINK-4539,1 53423U 22097AM  23361.64907485  .00001633  00000-0  12069-3 0  9999,2 53423  53.2168 119.1222 0001475  70.1753 289.9398 15.08841443 76933,6917.876,95.437,540.761,538.721,0.0
53423.0,STARLINK-4539,PAYLOAD,2023-12-28 12:14:41,15.08833696,0.0001764,53.2174,115.2579,61.0333,299.0836,0.00011112,1.481e-05,0.0,0 STARLINK-4539,1 53423U 22097AM  23362.51020301  .00001481  00000-0  11112-3 0  9998,2 53423  53.2174 115.2579 0001764  61.0333 299.0836 15.08833696 77061,6917.9,95.438,540.985,538.544,0.0
53423.0,STARLINK-4539,PAYLOAD,2023-12-28 13:50:04,15.08836682,0.0001529,53.2183,114.9591,94.1866,265.9301,9.7443e-05,1.263e-05,0.0,0 STARLINK-4539,1 53423U 22097AM  23362.57643958  .00001263  00000-0  97443-4 0  9993,2 53423  53.2183 114.9591 0001529  94.1866 265.9301 15.08836682 77537,6917.891,95.438,540.813,538.698,0.0
53423.0,STARLINK-4539,PAYLOAD,2023-12-28 15:25:27,15.08836319,0.0001897,53.2178,114.6635,58.6026,301.5152,0.00013016,1.784e-05,0.0,0 STARLINK-4539,1 53423U 22097AM  23362.64268102  .00001784  00000-0  13016-3 0  9996,2 53423  53.2178 114.6635 0001897  58.6026 301.5152 15.08836319 77547,6917.892,95.438,541.069,538.444,0.0
53423.0,STARLINK-4539,PAYLOAD,2023-12-29 13:40:51,15.08842447,0.0001444,53.2164,110.4991,67.0308,293.0836,5.4914e-05,5.86e-06,0.0,0 STARLINK-4539,1 53423U 22097AM  23363.57003863  .00000586  00000-0  54914-4 0  9992,2 53423  53.2164 110.4991 0001444  67.0308 293.0836 15.08842447 77684,6917.873,95.437,540.737,538.739,0.0
53423.0,STARLINK-4539,PAYLOAD,2023-12-30 13:31:38,15.08845363,0.0001487,53.2163,106.038,77.2217,282.8941,8.3868e-05,1.047e-05,0.0,0 STARLINK-4539,1 53423U 22097AM  23364.56363494  .00001047  00000-0  83868-4 0  9994,2 53423  53.2163 106.0380 0001487  77.2217 282.8941 15.08845363 77835,6917.864,95.437,540.758,538.7,0.0
53423.0,STARLINK-4539,PAYLOAD,2023-12-31 11:47:02,15.08834475,0.0001582,53.2169,101.8754,94.8594,265.2579,-2.0249e-06,-3.2e-06,0.0,0 STARLINK-4539,1 53423U 22097AM  23365.49100400 -.00000320  00000-0 -20249-5 0  9993,2 53423  53.2169 101.8754 0001582  94.8594 265.2579 15.08834475 77517,6917.897,95.438,540.857,538.668,0.0
53423.0,STARLINK-4539,PAYLOAD,2023-12-31 13:22:25,15.08835289,0.0001566,53.2168,101.578,91.1502,268.967,2.7857e-06,-2.44e-06,0.0,0 STARLINK-4539,1 53423U 22097AM  23365.55724347 -.00000244  00000-0  27857-5 0  9998,2 53423  53.2168 101.5780 0001566  91.1502 268.9670 15.08835289 77980,6917.895,95.438,540.843,538.676,0.0
53423.0,STARLINK-4539,PAYLOAD,2024-01-01 11:37:49,15.08840528,0.0001682,53.2175,97.413,101.6415,258.4766,4.1523e-05,3.73e-06,0.0,0 STARLINK-4539,1 53423U 22097AM  24001.48459881  .00000373  00000-0  41523-4 0  9993,2 53423  53.2175  97.4130 0001682 101.6415 258.4766 15.08840528 77666,6917.879,95.438,540.907,538.58,0.0
53423.0,STARLINK-4539,PAYLOAD,2024-01-01 13:13:12,15.08818992,0.0001823,53.2171,97.1148,106.512,253.6073,0.00036767,5.565e-05,0.0,0 STARLINK-4539,1 53423U 22097AM  24001.55084076  .00005565  00000-0  36767-3 0  9992,2 53423  53.2171  97.1148 0001823 106.5120 253.6073 15.08818992 78133,6917.945,95.439,541.071,538.548,0.0
53423.0,STARLINK-4539,PAYLOAD,2024-01-01 16:23:59,15.0880196,0.0001943,53.217,96.5188,102.7733,257.3476,0.00062598,9.678e-05,0.0,0 STARLINK-4539,1 53423U 22097AM  24001.68332555  .00009678  00000-0  62598-3 0  9994,2 53423  53.2170  96.5188 0001943 102.7733 257.3476 15.08801960 77695,6917.997,95.44,541.206,538.517,0.0
53423.0,STARLINK-4539,PAYLOAD,2024-01-02 05:07:04,15.0883339,0.0001548,53.2174,94.1362,112.7365,247.3791,-3.4625e-06,-3.43e-06,0.0,0 STARLINK-4539,1 53423U 22097AM  24002.21324556 -.00000343  00000-0 -34625-5 0  9990,2 53423  53.2174  94.1362 0001548 112.7365 247.3791 15.08833390 77770,6917.901,95.438,540.836,538.695,0.0
53423.0,STARLINK-4539,PAYLOAD,2024-01-02 13:04:00,15.08834258,0.0001381,53.2171,92.6558,90.9847,269.1303,4.9007e-05,4.92e-06,0.0,0 STARLINK-4539,1 53423U 22097AM  24002.54444500  .00000492  00000-0  49007-4 0  9990,2 53423  53.2171  92.6558 0001381  90.9847 269.1303 15.08834258 78286,6917.898,95.438,540.718,538.808,0.0
53423.0,STARLINK-4539,PAYLOAD,2024-01-03 11:19:24,15.08839127,0.0001399,53.2176,88.4931,97.9817,262.1334,-4.3276e-05,-9.77e-06,0.0,0 STARLINK-4539,1 53423U 22097AM  24003.47180791 -.00000977  00000-0 -43276-4 0  9994,2 53423  53.2176  88.4931 0001399  97.9817 262.1334 15.08839127 77963,6917.883,95.438,540.716,538.78,0.0
53423.0,STARLINK-4539,PAYLOAD,2024-01-03 12:54:47,15.08840561,0.0001345,53.2173,88.1957,89.3609,270.7537,-3.1894e-05,-7.95e-06,0.0,0 STARLINK-4539,1 53423U 22097AM  24003.53804706 -.00000795  00000-0 -31894-4 0  9991,2 53423  53.2173  88.1957 0001345  89.3609 270.7537 15.08840561 78437,6917.879,95.438,540.674,538.813,0.0
53423.0,STARLINK-4539,PAYLOAD,2024-01-04 14:20:57,15.08841326,0.000132,53.2176,83.4386,73.758,286.3557,0.00012203,1.655e-05,0.0,0 STARLINK-4539,1 53423U 22097AM  24004.59788402  .00001655  00000-0  12203-3 0  9998,2 53423  53.2176  83.4386 0001320  73.7580 286.3557 15.08841326 78594,6917.876,95.437,540.654,538.828,0.0
